STARLINK-30760          
1 58187U 23167N   26068.52874204 -.00001663  00000+0 -52348-4 0  9995
2 58187  42.9998 144.0264 0001007 208.5156 151.5640 15.26739238130965
FLOCK 4G-8              
1 62613U 25009E   26068.72381419  .00013559  00000+0  50438-3 0  9996
2 62613  97.4045 151.2834 0003050 315.2538  44.8455 15.27623414 63721
